APRIZESAT 2             
1 28366U 04025A   26177.39973149  .00000202  00000+0  75855-4 0  9991
2 28366  98.1020 342.8589 0104712 221.7412 137.5754 14.38039454152966
SAUDICOMSAT 1           
1 28369U 04025D   26177.50318512  .00000345  00000+0  90135-4 0  9990
2 28369  98.5770 187.8859 0032038 357.3667   2.7356 14.55480471165481
SAUDICOMSAT 2           
1 28370U 04025E   26177.50999898  .00000216  00000+0  67379-4 0  9995
2 28370  98.6639 190.0200 0054475 230.7038 128.9318 14.49985788161455
APRIZESAT 1             
1 28372U 04025G   26176.97879555  .00000258  00000+0  75516-4 0  9992
2 28372  98.6302 187.9437 0045516 127.5972 232.9368 14.51781562163187
NANOSAT-1               
1 28493U 04049B   26177.63319627  .00000958  00000+0  13339-3 0  9996
2 28493  98.2286 314.5256 0002742 257.8741 102.2163 14.80176596156844
SAUDICOMSAT 7           
1 31119U 07012C   26177.73580796  .00000460  00000+0  91287-4 0  9993
2 31119  98.3782 152.0630 0055977 165.2467 195.0385 14.66118415 23839
SAUDICOMSAT 6           
1 31121U 07012E   26177.73653792  .00000474  00000+0  10054-3 0  9990
2 31121  98.4102 145.4308 0070550 297.6358  61.7693 14.62568242 21584
SAUDICOMSAT 5           
1 31124U 07012H   26177.69591213  .00000657  00000+0  12132-3 0  9999
2 31124  98.3493 152.7673 0048735  95.5589 265.1177 14.68168049 24998
SAUDICOMSAT 3           
1 31125U 07012J   26176.89157851  .00000829  00000+0  14324-3 0  9993
2 31125  98.3146 152.4943 0039729  26.3675 333.9542 14.70719574 26105
SAUDICOMSAT 4           
1 31127U 07012L   26177.37820541  .00000409  00000+0  85045-4 0  9995
2 31127  98.3987 150.1363 0062345 228.9373 130.6432 14.64520062 22635
APRIZESAT 4             
1 35684U 09041D   26177.69744380  .00000574  00000+0  75198-4 0  9993
2 35684  98.1411 253.2074 0041952 291.4115  68.2625 14.83890494912774
APRIZESAT 3             
1 35686U 09041F   26177.39448204  .00001058  00000+0  95982-4 0  9999
2 35686  98.2075 331.0599 0062539  37.7097 322.8481 14.96268937917751
S-NET D                 
1 43186U 18014G   26177.69822730  .00005138  00000+0  26512-3 0  9991
2 43186  97.5361  82.4296 0007902 359.1582   0.9636 15.16756105460200
S-NET B                 
1 43187U 18014H   26177.70986538  .00004950  00000+0  25574-3 0  9999
2 43187  97.5363  82.4282 0008324 354.1490   5.9644 15.16726956460205
S-NET A                 
1 43188U 18014J   26177.69705323  .00005228  00000+0  26960-3 0  9998
2 43188  97.5374  82.6260 0008295 354.3716   5.7422 15.16764284460204
S-NET C                 
1 43189U 18014K   26177.71378932  .00004905  00000+0  25347-3 0  9993
2 43189  97.5389  82.7188 0009369 344.9812  15.1141 15.16718962458758
SALSAT                  
1 46495U 20068K   26177.49875036  .00007768  00000+0  27079-3 0  9994
2 46495  97.8850 181.1309 0007810 268.2261  91.8084 15.29924136316780
OOV-CUBE (TUBSAT-30)    
1 60240U 24128F   26177.30430608  .00001677  00000+0  13798-3 0  9997
2 60240  61.9924 193.7808 0043497 135.8027 224.6553 15.02804000107481
LPNTSAT-001 (IOD-1)     
1 68408U 26065A   26176.90655221  .00002773  00000+0  13703-3 0  9992
2 68408  97.4014  57.2316 0015731 340.0376  20.0241 15.18578906 13583
